[ {"name": "STARLINK-31996", "line1": "1 60100U 24117K   26140.03906656  .00000885  00000+0  42014-4 0  9995", "line2": "2 60100  53.1611  65.4790 0001293  89.1215 270.9934 15.30187428107818"}, {"name": "STARLINK-31999", "line1": "1 60101U 24117L   26140.08444237  .00000657  00000+0  34301-4 0  9990", "line2": "2 60101  53.1606  65.7635 0001345  81.4471 278.6683 15.30200242107817"}, {"name": "STARLINK-31954", "line1": "1 60102U 24117M   26140.07812699 -.00001208  00000+0 -28691-4 0  9991", "line2": "2 60102  53.1610  65.7245 0001334  84.0162 276.0991 15.30182889107814"}, {"name": "STARLINK-32013", "line1": "1 60103U 24117N   26140.07496227 -.00001410  00000+0 -35541-4 0  9994", "line2": "2 60103  53.1605  65.7041 0000996  80.5391 279.5723 15.30174111107811"}, {"name": "STARLINK-32009", "line1": "1 60104U 24117P   26140.08760559 -.00000930  00000+0 -19271-4 0  9996", "line2": "2 60104  53.1602  65.7573 0001484  81.8247 278.2922 15.30203913107816"}, {"name": "STARLINK-32018", "line1": "1 60105U 24117Q   26140.06544647 -.00000126  00000+0  78899-5 0  9991", "line2": "2 60105  53.1614  65.6442 0001339  79.0926 281.0225 15.30198635107818"}, {"name": "STARLINK-32045", "line1": "1 60106U 24117R   26140.06861354 -.00000045  00000+0  10621-4 0  9997", "line2": "2 60106  53.1607  65.6645 0001224  79.6534 280.4605 15.30197688107812"}, {"name": "STARLINK-32035", "line1": "1 60107U 24117S   26140.05489713  .00002004  00000+0  79781-4 0  9990", "line2": "2 60107  53.1602  65.5772 0001775  82.0283 278.0919 15.30200285107817"}, {"name": "STARLINK-32042", "line1": "1 60108U 24117T   26140.04539852 -.00000690  00000+0 -11174-4 0  9993", "line2": "2 60108  53.1616  65.5174 0001518  96.8619 263.2554 15.30193282107819"}, {"name": "STARLINK-32040", "line1": "1 60109U 24117U   26140.02745405  .00000891  00000+0  42228-4 0  9990", "line2": "2 60109  53.1594  65.4102 0001542 102.9079 257.2094 15.30194230107817"}, {"name": "STARLINK-32001", "line1": "1 60110U 24117V   26140.10121459  .00000747  00000+0  37339-4 0  9995", "line2": "2 60110  53.1605  65.1573 0001176  77.3855 282.7277 15.30187582107820"}, {"name": "STARLINK-32015", "line1": "1 60111U 24117W   26140.02955625 -.00001334  00000+0 -32911-4 0  9993", "line2": "2 60111  53.1616  65.4198 0001341  99.3000 260.8152 15.30210053107817"}, {"name": "STARLINK-32024", "line1": "1 60112U 24117X   26140.04223380 -.00000132  00000+0  76886-5 0  9996", "line2": "2 60112  53.1614  65.4975 0001573  91.1522 268.9659 15.30191509107810"}, {"name": "STARLINK-11201 [DTC]", "line1": "1 60113U 24118A   26139.58302815  .00030941  00000+0  25930-3 0  9998", "line2": "2 60113  53.1565 232.0972 0001148  73.6155 286.4989 15.69708989109125"}, {"name": "STARLINK-11198 [DTC]", "line1": "1 60114U 24118B   26139.96013683  .00001016  00000+0  13237-4 0  9992", "line2": "2 60114  53.1582 230.1797 0001078  67.8805 292.2327 15.69717940109182"}, {"name": "STARLINK-11112 [DTC]", "line1": "1 60115U 24118C   26139.95523154  .00001767  00000+0  19442-4 0  9998", "line2": "2 60115  53.1575 230.1457 0001245  64.4659 295.6488 15.69711149109184"}, {"name": "STARLINK-11210 [DTC]", "line1": "1 60116U 24118D   26139.95032355  .00000141  00000+0  60198-5 0  9997", "line2": "2 60116  53.1592 230.1141 0000765  66.8177 293.2922 15.69718791109188"}, {"name": "STARLINK-11203 [DTC]", "line1": "1 60117U 24118E   26139.43606712  .00002271  00000+0  23607-4 0  9994", "line2": "2 60117  53.1582 232.5947 0001043  75.8905 284.2229 15.69700999109100"}, {"name": "STARLINK-11177 [DTC]", "line1": "1 60118U 24118F   26139.68584302 -.00000981  00000+0 -32418-5 0  9991", "line2": "2 60118  53.1585 231.3077 0001227  44.1925 315.9191 15.69707112109148"}, {"name": "STARLINK-11127 [DTC]", "line1": "1 60119U 24118G   26139.55360423  .00005465  00000+0  49991-4 0  9997", "line2": "2 60119  53.1601 231.9010 0001591  85.1462 274.9737 15.69683202109127"}, {"name": "STARLINK-11164 [DTC]", "line1": "1 60120U 24118H   26139.61236417  .00000626  00000+0  10031-4 0  9998", "line2": "2 60120  53.1590 231.5519 0001113  84.3540 275.7605 15.69702684109134"}, {"name": "STARLINK-11119 [DTC]", "line1": "1 60121U 24118J   26139.97965644  .00000254  00000+0  69531-5 0  9996", "line2": "2 60121  53.1593 229.5733 0001135  86.1505 273.9642 15.69711862109193"}, {"name": "STARLINK-11157 [DTC]", "line1": "1 60122U 24118K   26139.60255243  .00001885  00000+0  20422-4 0  9990", "line2": "2 60122  53.1601 231.4874 0001160  77.0822 283.0326 15.69695263109132"}, {"name": "STARLINK-11162 [DTC]", "line1": "1 60123U 24118L   26139.59273836 -.00003579  00000+0 -24695-4 0  9997", "line2": "2 60123  53.1573 231.4215 0001094  93.7738 266.3405 15.69707281109133"}, {"name": "STARLINK-11161 [DTC]", "line1": "1 60124U 24118M   26139.96995325  .00001793  00000+0  19665-4 0  9998", "line2": "2 60124  53.1601 230.2442 0001131  88.9787 271.1360 15.69696583109188"}, {"name": "STARLINK-11160 [DTC]", "line1": "1 60125U 24118N   26139.41645507 -.00000035  00000+0  45695-5 0  9995", "line2": "2 60125  53.1583 232.4566 0001117  33.8646 326.2443 15.69687259109102"}, {"name": "STARLINK-31846", "line1": "1 60126U 24118P   26140.05807451  .00001147  00000+0  50846-4 0  9993", "line2": "2 60126  53.1606  55.1879 0001087  85.1857 274.9268 15.30194241106626"}, {"name": "STARLINK-31840", "line1": "1 60127U 24118Q   26140.16668980  .00055165  00000+0  17768-2 0  9991", "line2": "2 60127  53.1591  54.7207 0001475  85.0714 138.3478 15.31690879  5782"}, {"name": "STARLINK-31813", "line1": "1 60128U 24118R   26140.03764530 -.00002635  00000+0 -73201-4 0  9998", "line2": "2 60128  53.1619  55.0654 0001486  84.1341 275.9830 15.31687315106628"}, {"name": "STARLINK-31845", "line1": "1 60129U 24118S   26140.05860368 -.00000063  00000+0  10014-4 0  9992", "line2": "2 60129  53.1605  53.0553 0001319  92.9749 267.1403 15.30194001106650"}, {"name": "STARLINK-31838", "line1": "1 60130U 24118T   26140.04695796  .00000700  00000+0  34298-4 0  9991", "line2": "2 60130  53.1616  55.1204 0001157  88.6852 271.4282 15.31708698106621"}, {"name": "STARLINK-31785", "line1": "1 60131U 24118U   26140.03295998  .00000361  00000+0  23391-4 0  9996", "line2": "2 60131  53.1610  55.0322 0001192  88.4884 271.6254 15.31703867106622"}, {"name": "STARLINK-31792", "line1": "1 60132U 24118V   26140.04171069  .00000040  00000+0  13470-4 0  9991", "line2": "2 60132  53.1611  52.9099 0001287  77.9092 282.2053 15.30197685106652"}, {"name": "STARLINK-32043", "line1": "1 60135U 24120A   26139.92508499 -.00000200  00000+0  53794-5 0  9996", "line2": "2 60135  53.1611 348.9728 0001234  86.7958 273.3184 15.30193572107280"}, {"name": "STARLINK-32112", "line1": "1 60136U 24120B   26139.89143247 -.00001363  00000+0 -33909-4 0  9996", "line2": "2 60136  53.1609 349.4770 0001154  96.2067 263.9066 15.30193082107357"}, {"name": "STARLINK-32050", "line1": "1 60137U 24120C   26140.16668980  .00356639  00000+0  10139-1 0  9999", "line2": "2 60137  53.1596 348.2412 0001625  77.2897 337.4786 15.34198079  5804"}, {"name": "STARLINK-32025", "line1": "1 60138U 24120D   26139.90819073 -.00000199  00000+0  54079-5 0  9994", "line2": "2 60138  53.1616 348.8581 0001486 137.0132 223.0985 15.30194315107284"}, {"name": "STARLINK-31694", "line1": "1 60140U 24120F   26139.88931847 -.00000666  00000+0 -10360-4 0  9992", "line2": "2 60140  53.1607 349.4604 0001130  82.9399 277.1730 15.30194349107352"}, {"name": "STARLINK-32036", "line1": "1 60141U 24120G   26139.95356102 -.00011152  00000+0 -36417-3 0  9998", "line2": "2 60141  53.1622 349.1501 0001225  75.6212 284.4925 15.30267292107367"}, {"name": "STARLINK-32031", "line1": "1 60142U 24120H   26139.93195336  .00000385  00000+0  22520-4 0  9992", "line2": "2 60142  53.1620 349.0156 0000858  69.7509 290.3585 15.34393162107363"}, {"name": "STARLINK-32027", "line1": "1 60143U 24120J   26140.03460634  .00000903  00000+0  42629-4 0  9990", "line2": "2 60143  53.1613 348.1918 0000782  61.2240 298.8839 15.30175530107387"}, {"name": "STARLINK-32033", "line1": "1 60144U 24120K   26139.91664514 -.00000249  00000+0  37183-5 0  9993", "line2": "2 60144  53.1616 348.9253 0001280  77.3241 282.7903 15.30189511107281"}, {"name": "STARLINK-32029", "line1": "1 60145U 24120L   26139.93775095 -.00000468  00000+0 -36846-5 0  9992", "line2": "2 60145  53.1600 349.0494 0001118 100.2766 259.8361 15.30193795107284"}, {"name": "STARLINK-32127", "line1": "1 60146U 24120M   26139.90187197 -.00000968  00000+0 -20564-4 0  9994", "line2": "2 60146  53.1615 348.8274 0001370  96.9662 263.1495 15.30187772107284"}, {"name": "STARLINK-32019", "line1": "1 60147U 24120N   26139.97562770 -.00000434  00000+0 -25411-5 0  9991", "line2": "2 60147  53.1614 348.5794 0001330  72.7288 287.3859 15.30189758107299"}, {"name": "STARLINK-32021", "line1": "1 60148U 24120P   26140.16668980 -.00027350  00000+0 -87220-3 0  9995", "line2": "2 60148  53.1585 337.7969 0001356  85.5401 217.1985 15.31720380  5851"}, {"name": "STARLINK-32022", "line1": "1 60149U 24120Q   26139.92824966 -.00000144  00000+0  72556-5 0  9995", "line2": "2 60149  53.1624 348.9853 0001169  95.2297 264.8837 15.30196171107363"}, {"name": "STARLINK-32014", "line1": "1 60150U 24120R   26139.91876150 -.00002346  00000+0 -67149-4 0  9996", "line2": "2 60150  53.1607 348.9303 0001063  75.5136 284.5983 15.30187031107289"}, {"name": "STARLINK-32004", "line1": "1 60151U 24120S   26139.98723316 -.00000242  00000+0  39554-5 0  9991", "line2": "2 60151  53.1613 348.6467 0001314  79.6164 280.4984 15.30193450107378"}, {"name": "STARLINK-32147", "line1": "1 60152U 24120T   26139.89248017  .00000152  00000+0  17266-4 0  9996", "line2": "2 60152  53.1609 349.4778 0001104  99.9683 260.1443 15.30194771107277"}, {"name": "STARLINK-32131", "line1": "1 60153U 24120U   26140.16668980 -.00006585  00000+0 -18921-3 0  9990", "line2": "2 60153  53.1591 348.0032 0001448  66.3150 106.5717 15.33521764  5851"}]